{"type": "FeatureCollection", "features": [ {"type": "Feature", "properties": {"norad_id": 31555, "name": "FENGYUN 1C DEB", "group": "fengyun-1c-debris", "lat": 80.65203275193537, "lon": -145.70474801774176, "alt_km": 815.6749055851797, "timestamp": "2025-12-03T15:48:03.353517+00:00", "meta": {"OBJECT_NAME": "FENGYUN 1C DEB", "OBJECT_ID": "1999-025BYW", "EPOCH": "2025-12-01T03:31:04.241568", "MEAN_MOTION": 14.440428, "ECCENTRICITY": 0.01547303, "INCLINATION": 99.1019, "RA_OF_ASC_NODE": 288.4787, "ARG_OF_PERICENTER": 231.041, "MEAN_ANOMALY": 127.6906, "EPHEMERIS_TYPE": 0, "CLASSIFICATION_TYPE": "U", "NORAD_CAT_ID": 31555, "ELEMENT_SET_NO": 999, "REV_AT_EPOCH": 96396, "BSTAR": 0.0015674525, "MEAN_MOTION_DOT": 6.152e-05, "MEAN_MOTION_DDOT": 0}, "tle": {"line1": "1 31555U 99025BYW 25335.14657687  .00006152  00000+0  15675-2 0  9995", "line2": "2 31555  99.1019 288.4787 0154730 231.0410 127.6906 14.44042800963966"}}, "geometry": {"type": "Point", "coordinates": [-145.70474801774176, 80.65203275193537]}}, {"type": "Feature", "properties": {"norad_id": 31558, "name": "FENGYUN 1C DEB", "group": "fengyun-1c-debris", "lat": -8.89812633552499, "lon": 51.426322721550534, "alt_km": 791.2927577450891, "timestamp": "2025-12-03T15:48:03.353527+00:00", "meta": {"OBJECT_NAME": "FENGYUN 1C DEB", "OBJECT_ID": "1999-025BYZ", "EPOCH": "2025-12-02T04:34:35.989248", "MEAN_MOTION": 14.38654909, "ECCENTRICITY": 0.02111607, "INCLINATION": 98.7911, "RA_OF_ASC_NODE": 231.3106, "ARG_OF_PERICENTER": 293.7151, "MEAN_ANOMALY": 220.5609, "EPHEMERIS_TYPE": 0, "CLASSIFICATION_TYPE": "U", "NORAD_CAT_ID": 31558, "ELEMENT_SET_NO": 999, "REV_AT_EPOCH": 97283, "BSTAR": 0.00041471229, "MEAN_MOTION_DOT": 1.591e-05, "MEAN_MOTION_DDOT": 0}, "tle": {"line1": "1 31558U 99025BYZ 25336.19069432  .00001591  00000+0  41471-3 0  9995", "line2": "2 31558  98.7911 231.3106 0211160 293.7151 220.5609 14.38654909972836"}}, "geometry": {"type": "Point", "coordinates": [51.426322721550534, -8.89812633552499]}}, {"type": "Feature", "properties": {"norad_id": 31559, "name": "FENGYUN 1C DEB", "group": "fengyun-1c-debris", "lat": -32.36043690812468, "lon": -63.23463558454237, "alt_km": 698.1024307971511, "timestamp": "2025-12-03T15:48:03.353535+00:00", "meta": {"OBJECT_NAME": "FENGYUN 1C DEB", "OBJECT_ID": "1999-025BZA", "EPOCH": "2025-12-03T08:26:44.985120", "MEAN_MOTION": 14.63321376, "ECCENTRICITY": 0.00540586, "INCLINATION": 98.8661, "RA_OF_ASC_NODE": 290.7598, "ARG_OF_PERICENTER": 223.4237, "MEAN_ANOMALY": 289.7891, "EPHEMERIS_TYPE": 0, "CLASSIFICATION_TYPE": "U", "NORAD_CAT_ID": 31559, "ELEMENT_SET_NO": 999, "REV_AT_EPOCH": 97419, "BSTAR": 0.0021445567, "MEAN_MOTION_DOT": 0.00011266, "MEAN_MOTION_DDOT": 0}, "tle": {"line1": "1 31559U 99025BZA 25337.35190955  .00011266  00000+0  21446-2 0  9999", "line2": "2 31559  98.8661 290.7598 0054058 223.4237 289.7891 14.63321376974198"}}, "geometry": {"type": "Point", "coordinates": [-63.23463558454237, -32.36043690812468]}}, {"type": "Feature", "properties": {"norad_id": 31560, "name": "FENGYUN 1C DEB", "group": "fengyun-1c-debris", "lat": -34.17506379268835, "lon": -171.87251993517262, "alt_km": 870.5149141611519, "timestamp": "2025-12-03T15:48:03.353544+00:00", "meta": {"OBJECT_NAME": "FENGYUN 1C DEB", "OBJECT_ID": "1999-025BZB", "EPOCH": "2025-12-02T21:53:24.174240", "MEAN_MOTION": 14.21217416, "ECCENTRICITY": 0.01203744, "INCLINATION": 98.5902, "RA_OF_ASC_NODE": 13.2921, "ARG_OF_PERICENTER": 337.1039, "MEAN_ANOMALY": 22.4798, "EPHEMERIS_TYPE": 0, "CLASSIFICATION_TYPE": "U", "NORAD_CAT_ID": 31560, "ELEMENT_SET_NO": 999, "REV_AT_EPOCH": 96479, "BSTAR": 8.2444174e-05, "MEAN_MOTION_DOT": 1.5e-06, "MEAN_MOTION_DDOT": 0}, "tle": {"line1": "1 31560U 99025BZB 25336.91208535  .00000150  00000+0  82444-4 0  9993", "line2": "2 31560  98.5902  13.2921 0120374 337.1039  22.4798 14.21217416964797"}}, "geometry": {"type": "Point", "coordinates": [-171.87251993517262, -34.17506379268835]}}, {"type": "Feature", "properties": {"norad_id": 31561, "name": "FENGYUN 1C DEB", "group": "fengyun-1c-debris", "lat": 72.8231777053519, "lon": -176.15772727586764, "alt_km": 886.7283769326896, "timestamp": "2025-12-03T15:48:03.353553+00:00", "meta": {"OBJECT_NAME": "FENGYUN 1C DEB", "OBJECT_ID": "1999-025BZC", "EPOCH": "2025-12-03T06:49:12.474624", "MEAN_MOTION": 14.0274549, "ECCENTRICITY": 0.00563632, "INCLINATION": 98.7158, "RA_OF_ASC_NODE": 333.7309, "ARG_OF_PERICENTER": 209.5328, "MEAN_ANOMALY": 167.3047, "EPHEMERIS_TYPE": 0, "CLASSIFICATION_TYPE": "U", "NORAD_CAT_ID": 31561, "ELEMENT_SET_NO": 999, "REV_AT_EPOCH": 95046, "BSTAR": 0.00079569569, "MEAN_MOTION_DOT": 1.205e-05, "MEAN_MOTION_DDOT": 0}, "tle": {"line1": "1 31561U 99025BZC 25337.28417216  .00001205  00000+0  79570-3 0  9990", "line2": "2 31561  98.7158 333.7309 0056363 209.5328 167.3047 14.02745490950464"}}, "geometry": {"type": "Point", "coordinates": [-176.15772727586764, 72.8231777053519]}}, {"type": "Feature", "properties": {"norad_id": 31562, "name": "FENGYUN 1C DEB", "group": "fengyun-1c-debris", "lat": 71.8502328897892, "lon": -21.724317442846225, "alt_km": 782.1279339433586, "timestamp": "2025-12-03T15:48:03.353562+00:00", "meta": {"OBJECT_NAME": "FENGYUN 1C DEB", "OBJECT_ID": "1999-025BZD", "EPOCH": "2025-11-30T09:02:26.155968", "MEAN_MOTION": 14.41943964, "ECCENTRICITY": 0.00571865, "INCLINATION": 99.2576, "RA_OF_ASC_NODE": 124.8818, "ARG_OF_PERICENTER": 319.7345, "MEAN_ANOMALY": 39.9613, "EPHEMERIS_TYPE": 0, "CLASSIFICATION_TYPE": "U", "NORAD_CAT_ID": 31562, "ELEMENT_SET_NO": 999, "REV_AT_EPOCH": 96812, "BSTAR": 0.00090169578, "MEAN_MOTION_DOT": 2.962e-05, "MEAN_MOTION_DDOT": 0}, "tle": {"line1": "1 31562U 99025BZD 25334.37669162  .00002962  00000+0  90170-3 0  9997", "line2": "2 31562  99.2576 124.8818 0057186 319.7345  39.9613 14.41943964968120"}}, "geometry": {"type": "Point", "coordinates": [-21.724317442846225, 71.8502328897892]}}, {"type": "Feature", "properties": {"norad_id": 31563, "name": "FENGYUN 1C DEB", "group": "fengyun-1c-debris", "lat": 76.60849059521767, "lon": -8.207144850681402, "alt_km": 589.2961356909282, "timestamp": "2025-12-03T15:48:03.353571+00:00", "meta": {"OBJECT_NAME": "FENGYUN 1C DEB", "OBJECT_ID": "1999-025BZE", "EPOCH": "2025-12-01T09:15:52.692192", "MEAN_MOTION": 14.65165233, "ECCENTRICITY": 0.01140629, "INCLINATION": 98.9502, "RA_OF_ASC_NODE": 127.8711, "ARG_OF_PERICENTER": 113.7658, "MEAN_ANOMALY": 247.5554, "EPHEMERIS_TYPE": 0, "CLASSIFICATION_TYPE": "U", "NORAD_CAT_ID": 31563, "ELEMENT_SET_NO": 999, "REV_AT_EPOCH": 98378, "BSTAR": 0.00091407218, "MEAN_MOTION_DOT": 5.352e-05, "MEAN_MOTION_DDOT": 0}, "tle": {"line1": "1 31563U 99025BZE 25335.38602653  .00005352  00000+0  91407-3 0  9992", "line2": "2 31563  98.9502 127.8711 0114062 113.7658 247.5554 14.65165233983788"}}, "geometry": {"type": "Point", "coordinates": [-8.207144850681402, 76.60849059521767]}}, {"type": "Feature", "properties": {"norad_id": 31565, "name": "FENGYUN 1C DEB", "group": "fengyun-1c-debris", "lat": -5.635758323787031, "lon": 26.468596341727935, "alt_km": 796.3990140612559, "timestamp": "2025-12-03T15:48:03.353580+00:00", "meta": {"OBJECT_NAME": "FENGYUN 1C DEB", "OBJECT_ID": "1999-025BZG", "EPOCH": "2025-11-29T09:07:25.735008", "MEAN_MOTION": 14.38541647, "ECCENTRICITY": 0.00553237, "INCLINATION": 100.7173, "RA_OF_ASC_NODE": 202.2097, "ARG_OF_PERICENTER": 58.3475, "MEAN_ANOMALY": 302.3085, "EPHEMERIS_TYPE": 0, "CLASSIFICATION_TYPE": "U", "NORAD_CAT_ID": 31565, "ELEMENT_SET_NO": 999, "REV_AT_EPOCH": 64161, "BSTAR": 0.0030186467, "MEAN_MOTION_DOT": 9.348e-05, "MEAN_MOTION_DDOT": 0}, "tle": {"line1": "1 31565U 99025BZG 25333.38015897  .00009348  00000+0  30186-2 0  9995", "line2": "2 31565 100.7173 202.2097 0055323  58.3475 302.3085 14.38541647641615"}}, "geometry": {"type": "Point", "coordinates": [26.468596341727935, -5.635758323787031]}}, {"type": "Feature", "properties": {"norad_id": 31566, "name": "FENGYUN 1C DEB", "group": "fengyun-1c-debris", "lat": -71.72393829342003, "lon": 64.7139478756456, "alt_km": 777.614741611229, "timestamp": "2025-12-03T15:48:03.353589+00:00", "meta": {"OBJECT_NAME": "FENGYUN 1C DEB", "OBJECT_ID": "1999-025BZH", "EPOCH": "2025-12-01T02:36:25.020288", "MEAN_MOTION": 14.37174126, "ECCENTRICITY": 0.00233316, "INCLINATION": 98.9506, "RA_OF_ASC_NODE": 33.559, "ARG_OF_PERICENTER": 32.6722, "MEAN_ANOMALY": 29.0122, "EPHEMERIS_TYPE": 0, "CLASSIFICATION_TYPE": "U", "NORAD_CAT_ID": 31566, "ELEMENT_SET_NO": 999, "REV_AT_EPOCH": 96224, "BSTAR": 0.0021549401, "MEAN_MOTION_DOT": 6.388e-05, "MEAN_MOTION_DDOT": 0}, "tle": {"line1": "1 31566U 99025BZH 25335.10862292  .00006388  00000+0  21549-2 0  9991", "line2": "2 31566  98.9506  33.5590 0023331  32.6722  29.0122 14.37174126962244"}}, "geometry": {"type": "Point", "coordinates": [64.7139478756456, -71.72393829342003]}}, {"type": "Feature", "properties": {"norad_id": 31567, "name": "FENGYUN 1C DEB", "group": "fengyun-1c-debris", "lat": -40.49078426409618, "lon": 10.633964855694085, "alt_km": 966.7559779608646, "timestamp": "2025-12-03T15:48:03.353598+00:00", "meta": {"OBJECT_NAME": "FENGYUN 1C DEB", "OBJECT_ID": "1999-025BZJ", "EPOCH": "2025-12-01T02:23:03.770880", "MEAN_MOTION": 13.92716645, "ECCENTRICITY": 0.0187511, "INCLINATION": 102.3183, "RA_OF_ASC_NODE": 197.9924, "ARG_OF_PERICENTER": 336.345, "MEAN_ANOMALY": 22.916, "EPHEMERIS_TYPE": 0, "CLASSIFICATION_TYPE": "U", "NORAD_CAT_ID": 31567, "ELEMENT_SET_NO": 999, "REV_AT_EPOCH": 67247, "BSTAR": 0.0035029529, "MEAN_MOTION_DOT": 5.166e-05, "MEAN_MOTION_DDOT": 0}, "tle": {"line1": "1 31567U 99025BZJ 25335.09934920  .00005166  00000+0  35030-2 0  9991", "line2": "2 31567 102.3183 197.9924 0187511 336.3450  22.9160 13.92716645672470"}}, "geometry": {"type": "Point", "coordinates": [10.633964855694085, -40.49078426409618]}}]}